FIREFLY-1               
1 62701U 25009CW  26193.83402874  .00000883  00000+0  90885-4 0  9991
2 62701  97.7062 271.4322 0002456 234.4334 125.6657 14.92738004 81144
FIREFLY-2               
1 62704U 25009CZ  26193.81192551  .00000582  00000+0  61716-4 0  9997
2 62704  97.7020 271.1817 0006607  11.0174 349.1189 14.92732241 81140
FIREFLY-3               
1 62710U 25009DF  26193.79014279  .00000457  00000+0  49536-4 0  9998
2 62710  97.7053 271.4191 0004811  78.7166 281.4594 14.92797647 81157
