{"fetched_at":"2026-07-13T07:48:15.266Z","source":"https://celestrak.org/NORAD/elements/gp.php?NAME=FIREFLY&FORMAT=JSON","constellation":"pixxel","records":[{"OBJECT_NAME":"FIREFLY-1","OBJECT_ID":"2025-009CW","EPOCH":"2026-07-12T20:01:00.083136","CLASSIFICATION_TYPE":"U","MEAN_MOTION":14.92738004,"ECCENTRICITY":0.0002456,"INCLINATION":97.7062,"RA_OF_ASC_NODE":271.4322,"ARG_OF_PERICENTER":234.4334,"MEAN_ANOMALY":125.6657,"EPHEMERIS_TYPE":0,"NORAD_CAT_ID":62701,"ELEMENT_SET_NO":999,"REV_AT_EPOCH":8114,"BSTAR":0.000090885,"MEAN_MOTION_DOT":0.00000883,"MEAN_MOTION_DDOT":0},{"OBJECT_NAME":"FIREFLY-2","OBJECT_ID":"2025-009CZ","EPOCH":"2026-07-12T19:29:10.364064","CLASSIFICATION_TYPE":"U","MEAN_MOTION":14.92732241,"ECCENTRICITY":0.0006607,"INCLINATION":97.702,"RA_OF_ASC_NODE":271.1817,"ARG_OF_PERICENTER":11.0174,"MEAN_ANOMALY":349.1189,"EPHEMERIS_TYPE":0,"NORAD_CAT_ID":62704,"ELEMENT_SET_NO":999,"REV_AT_EPOCH":8114,"BSTAR":0.000061716,"MEAN_MOTION_DOT":0.00000582,"MEAN_MOTION_DDOT":0},{"OBJECT_NAME":"FIREFLY-3","OBJECT_ID":"2025-009DF","EPOCH":"2026-07-12T18:57:48.337056","CLASSIFICATION_TYPE":"U","MEAN_MOTION":14.92797647,"ECCENTRICITY":0.0004811,"INCLINATION":97.7053,"RA_OF_ASC_NODE":271.4191,"ARG_OF_PERICENTER":78.7166,"MEAN_ANOMALY":281.4594,"EPHEMERIS_TYPE":0,"NORAD_CAT_ID":62710,"ELEMENT_SET_NO":999,"REV_AT_EPOCH":8115,"BSTAR":0.000049536,"MEAN_MOTION_DOT":0.00000457,"MEAN_MOTION_DDOT":0}]}
